CUTE-1 (CO-55)          
1 27844U 03031E   23286.60069438  .00000882  00000+0  41159-3 0  9999
2 27844  98.6807 292.1461 0010507 137.7614 222.4375 14.22915130 52574
CUBESAT XI-IV (CO-57)   
1 27848U 03031J   23286.02011873  .00000734  00000+0  34927-3 0  9990
2 27848  98.6843 291.9423 0010115 153.7299 206.4394 14.22406132 52250
CUBESAT XI-V            
1 28895U 05043F   23286.63644366  .00004252  00000+0  77954-3 0  9990
2 28895  98.1701  57.9354 0017100  61.1548 299.1369 14.66205023958164
CUTE-1.7+APD II (CO-65) 
1 32785U 08021C   23286.43911669  .00008177  00000+0  78196-3 0  9992
2 32785  97.7203 250.0283 0013715  73.6222 286.6505 14.93412944838466
AAUSAT-II               
1 32788U 08021F   23286.48201759  .00025766  00000+0  17218-2 0  9992
2 32788  97.5729 263.5597 0005466 328.9606  31.1298 15.06948508840902
DELFI-C3 (DO-64)        
1 32789U 08021G   23286.63659895  .00382794  00000+0  38223-2 0  9994
2 32789  97.2853 308.9767 0005462  93.1542 267.0343 15.64398659845790
SEEDS II (CO-66)        
1 32791U 08021J   23286.87893014  .00016934  00000+0  14157-2 0  9996
2 32791  97.6719 255.8354 0012627  26.5444 333.6423 14.98503078839502
SWISSCUBE               
1 35932U 09051B   23286.58241564  .00002679  00000+0  59238-3 0  9996
2 35932  98.5010 159.6597 0007827  11.4294 348.7080 14.58073818746466
BEESAT-1                
1 35933U 09051C   23286.62197091  .00002339  00000+0  52022-3 0  9994
2 35933  98.4937 160.9040 0006309  25.5329 334.6179 14.57938309746547
ITUPSAT1                
1 35935U 09051E   23286.39685982  .00001913  00000+0  43652-3 0  9997
2 35935  98.5037 160.5742 0008677  28.1413 332.0252 14.56961243746174
TISAT 1                 
1 36799U 10035E   23286.59333288  .00012231  00000+0  10449-2 0  9993
2 36799  98.1155 160.8569 0009304 307.6004  52.4372 14.97784659719949
M-CUBED & EXP-1 PRIME   
1 37855U 11061F   23286.57244675  .00061789  00000+0  15675-2 0  9994
2 37855 101.7066 315.8053 0102681  35.9008 324.9062 15.34144646654660
AEROCUBE 4.5A           
1 38767U 12048K   23286.60231138  .00017856  00000+0  11640-2 0  9991
2 38767  64.6657  25.4490 0107127 112.3655 248.8856 15.03343134223175
AEROCUBE 4.5B           
1 38768U 12048L   23286.49208467  .00021975  00000+0  11632-2 0  9996
2 38768  64.6640 325.2898 0085980 103.1550 257.9183 15.12255833223830
STRAND-1                
1 39090U 13009E   23286.48401143  .00000871  00000+0  31625-3 0  9995
2 39090  98.3849 116.6012 0007782 272.8779  87.1516 14.35726834556699
BRITE-AUSTRIA           
1 39091U 13009F   23286.49354138  .00000597  00000+0  22195-3 0  9995
2 39091  98.3883 115.8548 0009254 280.3800  79.6343 14.35572622556720
BEESAT-3                
1 39135U 13015F   23286.46397962  .00144448  00000+0  17660-2 0  9994
2 39135  64.8498 296.1636 0012849 272.1776  87.7900 15.59613506580691
BEESAT-2                
1 39136U 13015G   23286.77176477  .00122486  00000+0  18883-2 0  9991
2 39136  64.8628 309.4272 0023802 270.6539  89.1877 15.53207879580484
NEE-01 PEGASO           
1 39151U 13018B   23286.79454209  .00007728  00000+0  94149-3 0  9996
2 39151  98.0188  37.2799 0016755 124.1026 236.1780 14.83577838565278
ESTCUBE 1               
1 39161U 13021C   23286.76744395  .00004117  00000+0  62066-3 0  9998
2 39161  97.8615 355.6400 0008086 314.2259  45.8285 14.74877182560641
POPACS 1                
1 39268U 13055D   23286.43620121  .00060106  00000+0  12503-2 0  9997
2 39268  80.9882  71.5853 0477232 158.7313 203.4498 14.74367973523817
POPACS 2                
1 39269U 13055E   23286.37539459  .00023205  00000+0  57924-3 0  9990
2 39269  81.0055 146.3426 0591301 353.3930   5.9691 14.46738162519648
POPACS 3                
1 39270U 13055F   23286.16875263  .00011339  00000+0  32188-3 0  9995
2 39270  81.0141 189.8167 0654022 115.5946 251.4302 14.30713331497427
ZACUBE-1 (TSHEPISOSAT)  
1 39417U 13066B   23286.45075066  .00007278  00000+0  81654-3 0  9994
2 39417  97.6995 244.1281 0051781 257.9907 101.5502 14.86106228534750
WNISAT-1                
1 39423U 13066H   23286.83505614  .00001784  00000+0  35166-3 0  9993
2 39423  97.6874 136.1044 0173349  65.4807 296.4355 14.54459691524687
TRITON-1                
1 39427U 13066M   23286.77076814  .00004869  00000+0  71913-3 0  9992
2 39427  97.8346 208.2084 0107146 156.5866 204.0274 14.71816508529987
DELFI-N3XT              
1 39428U 13066N   23286.35277520  .00006862  00000+0  95674-3 0  9999
2 39428  97.8317 207.0837 0108155 168.3346 192.0407 14.74023233529537
GOMX-1                  
1 39430U 13066Q   23286.85590398  .00006140  00000+0  10541-2 0  9996
2 39430  97.7611 171.0159 0143121 318.3001  40.7360 14.62475011526873
CUBEBUG-2 (LO-74)       
1 39440U 13066AA  23286.56406801  .00009416  00000+0  11811-2 0  9990
2 39440  97.7830 231.5746 0074096   3.5086 356.6631 14.80435982531667
NEE-02 KRYSAOR          
1 39441U 13066AB  23286.36975511  .00005931  00000+0  78547-3 0  9996
2 39441  97.7934 227.9921 0077904  22.0072 338.4454 14.78140140531307
FUNCUBE-1 (AO-73)       
1 39444U 13066AE  23286.47095678  .00009409  00000+0  10049-2 0  9994
2 39444  97.6855 246.8168 0049902 241.3141 118.3055 14.88084158533226
UWE-3                   
1 39446U 13066AG  23286.81635760  .00010809  00000+0  12856-2 0  9990
2 39446  97.7478 237.9221 0062745 312.2053  47.3845 14.83142602532592
BRITE-CA1 (TORONTO)     
1 40020U 14033L   23286.40442428  .00003411  00000+0  56672-3 0  9993
2 40020  97.8434  68.0024 0085139 162.2439 198.1774 14.68376137498493
DUCHIFAT-1              
1 40021U 14033M   23286.84596040  .00020219  00000+0  16167-2 0  9991
2 40021  98.0682 254.8613 0010113 217.9799 142.0711 15.00209543506962
NANOSATC-BR1            
1 40024U 14033Q   23286.45147404  .00012537  00000+0  10711-2 0  9990
2 40024  98.0431 244.7526 0007895 244.3135 115.7271 14.97781833506105
QB50P1                  
1 40025U 14033R   23286.57254157  .00010764  00000+0  97979-3 0  9990
2 40025  98.0080 235.6114 0008979 261.6350  98.3852 14.95336267505827
QB50P2                  
1 40032U 14033Y   23286.83101057  .00011505  00000+0  10706-2 0  9993
2 40032  97.9757 229.0471 0008743 258.2303 101.7936 14.94449608506204
PERSEUS-M2              
1 40037U 14033AD  23286.77570278  .00003818  00000+0  41169-3 0  9992
2 40037  97.9088 212.2281 0012202 293.8805  66.1133 14.88965312505497
PERSEUS-M1              
1 40039U 14033AF  23286.35275027  .00003917  00000+0  42545-3 0  9991
2 40039  97.8928 208.5237 0011978 294.9054  65.0918 14.88647319504792
POLYITAN-1              
1 40042U 14033AJ  23286.42692735  .00013422  00000+0  11800-2 0  9993
2 40042  98.0207 237.7136 0010086 250.1026 109.9108 14.96633614505717
TIGRISAT                
1 40043U 14033AK  23286.41991669  .00003694  00000+0  51525-3 0  9990
2 40043  97.6734  95.5786 0057816  30.7867 329.6713 14.77126604500865
AEROCUBE 6A             
1 40045U 14033AM  23286.47027023  .00006615  00000+0  86100-3 0  9995
2 40045  97.6593 105.6335 0054023  13.8977 346.3708 14.79912644501112
AEROCUBE 6B             
1 40046U 14033AN  23286.44207673  .00007274  00000+0  92979-3 0  9997
2 40046  97.6544 104.1303 0052537  10.5966 349.6341 14.80696466501143
UKUBE-1                 
1 40074U 14037F   23286.73419440  .00010215  00000+0  10737-2 0  9991
2 40074  98.3354 197.4775 0004615 141.1848 218.9700 14.89646478501899
BRITE-PL2 (HEWELIUSZ)   
1 40119U 14049B   23286.82095630  .00005342  00000+0  59782-3 0  9994
2 40119  97.8836  23.0093 0017789  97.8607 262.4629 14.87205022495880
GRIFEX                  
1 40379U 15003D   23286.85578414  .00118090  00000+0  16620-2 0  9990
2 40379  99.0828 253.4096 0059771 214.9405 144.7915 15.54129669481725
CP10 (EXOCUBE)          
1 40380U 15003E   23286.45738524  .00051783  00000+0  11382-2 0  9993
2 40380  99.0888 240.4426 0080028 259.6734  99.5477 15.40436254480877
EXACTVIEW 9             
1 40936U 15052G   23286.47157238  .00004671  00000+0  52869-3 0  9993
2 40936   6.0045 321.6991 0009980 172.2399 187.7883 14.79126551434799
AEROCUBE 5C             
1 40965U 15058B   23286.58812280  .00004417  00000+0  47047-3 0  9998
2 40965  64.7741  40.0821 0169189  28.7330 332.2967 14.80211332220367
AEROCUBE 7              
1 40966U 15058C   23286.58252352  .00005718  00000+0  59085-3 0  9997
2 40966  64.7730  35.6878 0166293  28.4058 332.5989 14.81345480220398
GALASSIA                
1 41170U 15077E   23285.97270434  .00171244  00000+0  21548-2 0  9999
2 41170  14.9856  45.0293 0004780  10.4407 349.6019 15.57652444434327
VELOX-II                
1 41171U 15077F   23286.32574071  .00044876  00000+0  12974-2 0  9997
2 41171  14.9901 166.5906 0004696  60.4412 299.6380 15.33685092433329
HORYU-4                 
1 41340U 16012D   23286.27819346  .00013338  00000+0  79461-3 0  9990
2 41340  31.0021 142.7116 0011723 346.5860  13.4465 15.09942303420576
E-ST@R-II               
1 41459U 16025D   23286.87654321  .00084519  00000+0  18797-2 0  9994
2 41459  98.1687 140.8777 0090257  44.1678 316.6725 15.39075617411090
RAVAN                   
1 41849U 16067B   23286.69169579  .00015974  00000+0  10427-2 0  9990
2 41849  98.0490  86.3442 0015878 145.9904 214.2343 15.07841018378615
CELTEE 1                
1 41850U 16067C   23286.38291626  .00009392  00000+0  70420-3 0  9994
2 41850  98.0776  79.2660 0000569 316.3014  43.8164 15.02902693378163
OPTICUBE 04             
1 41851U 16067D   23286.39572486  .00004901  00000+0  39200-3 0  9994
2 41851  98.0613  76.8748 0017786 164.8107 195.3653 15.00583139378054
AEROCUBE 8D             
1 41852U 16067E   23286.38376423  .00010722  00000+0  79071-3 0  9995
2 41852  98.0816  78.5177 0005309 214.4437 145.6443 15.03479116378115
AEROCUBE 8C             
1 41853U 16067F   23286.38471915  .00010645  00000+0  78663-3 0  9998
2 41853  98.0615  77.7436 0009049 150.2748 209.8992 15.03383436378109
